KUIPER-00074            
1 64821U 25151F   25320.05044676  .00006811  00000+0  91998-3 0  9993
2 64821  51.9018  73.0945 0012195 250.9580 109.0062 14.79968460 18610
KUIPER-00075            
1 64822U 25151G   25320.62106295  .00077967  00000+0  19147-2 0  9998
2 64822  51.8772  50.9206 0004081 223.4357 136.6309 15.39973052 18972
KUIPER-00076            
1 64823U 25151H   25320.72307698  .00069643  00000+0  90809-2 0  9996
2 64823  51.9027  72.6172 0005570 244.1945 115.8443 14.79874750 18681
KUIPER-00077            
1 64824U 25151J   25320.04242261 -.00007428  00000+0 -94571-3 0  9992
2 64824  51.9008  80.6290 0006446 195.6740 164.4024 14.79940315 18515
KUIPER-00078            
1 64825U 25151K   25320.68660446  .00008253  00000+0  11094-2 0  9995
2 64825  51.9006  75.2785 0007250 268.7246  91.2886 14.79956142 18642
KUIPER-00079            
1 64826U 25151L   25320.70106273  .00002562  00000+0  38169-3 0  9992
2 64826  51.9012  80.0624 0011817 223.1958 136.8078 14.77981246 19770
KUIPER-00080            
1 64827U 25151M   25320.74879902 -.00007057  00000+0 -90059-3 0  9995
2 64827  51.8989  79.9952 0005104 239.3735 120.6724 14.79779427 18583
KUIPER-00082            
1 64828U 25151N   25320.05322680  .00006558  00000+0  88905-3 0  9996
2 64828  51.9016  70.5818 0004629 250.8633 109.1828 14.79898068 18658
KUIPER-00083            
1 64829U 25151P   25320.58532511  .00008282  00000+0  11126-2 0  9997
2 64829  51.9009  75.7257 0010446 227.6850 132.3228 14.79964854 19810
KUIPER-00084            
1 64830U 25151Q   25320.64214034 -.00000514  00000+0 -38073-4 0  9997
2 64830  51.8992  85.4634 0011703 195.3898 164.6710 14.79839598 18492
KUIPER-00085            
1 64831U 25151R   25320.49220125  .00004760  00000+0  65410-3 0  9998
2 64831  51.9046  68.6517 0006918 232.0074 128.0264 14.79852078 18715
KUIPER-00086            
1 64832U 25151S   25320.68354743  .00008995  00000+0  12050-2 0  9999
2 64832  51.9025  77.7907 0011099 221.1904 138.8221 14.79982996 18607
KUIPER-00087            
1 64833U 25151T   25320.83335647 -.00007514  00000+0 -92709-3 0  9997
2 64833  51.9003  59.6447 0000945 289.8013  40.6864 14.81282127  5827
KUIPER-00089            
1 64834U 25151U   25320.68172855  .00006148  00000+0  83737-3 0  9992
2 64834  51.9016  65.1404 0001444 281.9095  78.1706 14.79795868 18783
KUIPER-00090            
1 64835U 25151V   25320.83335647 -.01816850  00000+0 -16182+0 0  9998
2 64835  51.8964  56.9587 0004205 312.4968 175.5379 14.99363721  3077
KUIPER-00091            
1 64836U 25151W   25320.83335647  .00001025  00000+0  16376-3 0  9995
2 64836  51.9006  62.1427 0007345 280.9980  68.8875 14.79897090  5491
KUIPER-00092            
1 64837U 25151X   25320.83335647  .00002341  00000+0  34799-3 0  9997
2 64837  51.9007  69.6157 0005979 222.0997 182.0155 14.78416034  5428
KUIPER-00093            
1 64838U 25151Y   25320.68934411  .00005895  00000+0  80151-3 0  9995
2 64838  51.8991  72.7633 0013622 232.6850 127.2871 14.79898119 18679
KUIPER-00094            
1 64839U 25151Z   25320.68221969  .00015628  00000+0  11322-2 0  9991
2 64839  51.8906  62.0575 0005210 257.3946 102.6444 15.04100583 18827
KUIPER-00081            
1 65132U 25171A   25320.83335647 -.00976037  00000+0 -36885-1 0  9998
2 65132  51.8778 294.6993 0004631 101.8890  18.6028 15.29063102  5591
KUIPER-00088            
1 65133U 25171B   25320.24687009  .00007301  00000+0  89168-3 0  9997
2 65133  51.8989 307.1656 0008451 101.6490 258.5424 14.84140231 15999
KUIPER-00095            
1 65134U 25171C   25320.83335647 -.00126779  00000+0 -52866-2 0  9998
2 65134  51.8786 295.5415 0004744 107.0089 290.7720 15.23678943  1883
KUIPER-00096            
1 65135U 25171D   25320.83335647 -.01586048  00000+0 -12975+0 0  9993
2 65135  51.8885 298.3633 0011469 124.7172 322.1619 15.02024825  5633
KUIPER-00097            
1 65136U 25171E   25320.83335647 -.01340927  00000+0 -13088+0 0  9994
2 65136  51.8950 300.4412 0010690 123.6000 284.1444 14.95271680  4377
KUIPER-00098            
1 65137U 25171F   25320.83335647 -.01287041  00000+0 -15418+0 0  9991
2 65137  51.8956 302.2116 0008451 122.6068 217.6756 14.87046747  5429
KUIPER-00099            
1 65138U 25171G   25320.83335647 -.00773025  00000+0 -40910-1 0  9990
2 65138  51.8879 296.2701 0007659 124.5260 334.8611 15.17581755  4585
KUIPER-00100            
1 65139U 25171H   25320.83335647 -.00485111  00000+0 -21585-1 0  9994
2 65139  51.8814 295.5277 0003835 100.3915 345.2748 15.23186179  4143
KUIPER-00102            
1 65140U 25171J   25320.83335647 -.00433112  00000+0 -22495-1 0  9991
2 65140  51.8859 296.2724 0009410 113.8871 283.9089 15.17619726  4962
KUIPER-00103            
1 65141U 25171K   25320.24748388  .00008761  00000+0  11749-2 0  9994
2 65141  51.9016 312.2225 0006926 115.5658 244.6021 14.79992007 15915
KUIPER-00104            
1 65142U 25171L   25320.83335647 -.01457152  00000+0 -10228+0 0  9993
2 65142  51.8884 298.4520 0004506 116.6366  10.4805 15.08022188  2272
KUIPER-00105            
1 65143U 25171M   25320.83335647 -.00920390  00000+0 -13043+0 0  9990
2 65143  51.9075 304.6590 0013064  94.9782 320.9536 14.79540107  4200
KUIPER-00106            
1 65144U 25171N   25320.27139890  .00010706  00000+0  96155-3 0  9999
2 65144  51.8943 310.0181 0009886  81.7036 278.5054 14.96135301 15956
KUIPER-00107            
1 65145U 25171P   25320.83335647 -.00838615  00000+0 -30654-1 0  9999
2 65145  51.8768 294.8754 0006626 115.8249 254.6928 15.30142934  3705
KUIPER-00108            
1 65146U 25171Q   25320.83335647 -.00464928  00000+0 -45663-1 0  9998
2 65146  51.8981 300.1836 0009274 101.2272 167.5355 14.93931349  3926
KUIPER-00109            
1 65147U 25171R   25320.83335647 -.00374332  00000+0 -23195-1 0  9994
2 65147  51.8851 297.1825 0013008 110.7213 267.9578 15.11063713  5494
KUIPER-00110            
1 65148U 25171S   25320.83335647  .00042533  00000+0  54418-2 0  9991
2 65148  51.8979 306.8092 0011329  98.1979 331.7188 14.80894110  5543
KUIPER-00111            
1 65149U 25171T   25320.68352387  .00005829  00000+0  79067-3 0  9990
2 65149  51.8983 312.7868 0010138 105.0777 255.1308 14.80041995 15940
KUIPER-00112            
1 65150U 25171U   25320.83335647 -.01506922  00000+0 -95975-1 0  9996
2 65150  51.8897 296.9973 0008243 131.0353 274.5408 15.11600536  4861
KUIPER-00114            
1 65151U 25171V   25320.68105806  .00007780  00000+0  10482-2 0  9998
2 65151  51.9004 315.3315 0006457  95.2179 264.9520 14.79930754 15907
KUIPER-00115            
1 65152U 25171W   25320.68915334  .00005349  00000+0  73020-3 0  9991
2 65152  51.9019 307.7722 0010676 116.3073 243.8988 14.79905322 16017
KUIPER-00116            
1 65153U 25171X   25319.70419296  .00247542  00000+0  32259-1 0  9999
2 65153  51.8991 317.1733 0009813  79.8232 280.3837 14.78667888 15798
KUIPER-00118            
1 65154U 25171Y   25320.30902452  .00006608  00000+0  89179-3 0  9990
2 65154  51.9017 316.9468 0002011 107.5111 252.6072 14.80085969 15856
KUIPER-00119            
1 65155U 25171Z   25320.83335647  .00028180  00000+0  33257-2 0  9999
2 65155  51.8967 302.3213 0009384 106.3057  53.0860 14.84468792  4380
KUIPER-00120            
1 65762U 25217A   25320.83335647 -.01912669  00000+0 -15628+0 0  9990
2 65762  51.8876 193.4802 0013960 279.1167 163.4785 15.02685579  2769
KUIPER-00132            
1 65763U 25217B   25320.37036323  .00055158  00000+0  15134-2 0  9992
2 65763  51.8656 192.2254 0005854 281.0969  78.9359 15.36712598  7984
KUIPER-00133            
1 65764U 25217C   25320.83335647 -.01716577  00000+0 -13568+0 0  9993
2 65764  51.8858 193.3559 0010157 305.6523 305.0069 15.03588244  5815
KUIPER-00139            
1 65765U 25217D   25320.83335647 -.00744066  00000+0 -38760-1 0  9990
2 65765  51.8734 191.3870 0007172 276.0209 198.7896 15.18034740  5557
KUIPER-00142            
1 65766U 25217E   25319.68777842  .00043309  00000+0  11556-2 0  9994
2 65766  51.8696 195.1841 0002951 220.2837 139.7932 15.37696330  7887
KUIPER-00145            
1 65767U 25217F   25320.67143741  .00049652  00000+0  13375-2 0  9999
2 65767  51.8693 190.5255 0003408 258.6744 101.3860 15.37339365  8038
KUIPER-00147            
1 65768U 25217G   25320.83335647 -.00584195  00000+0 -18528-1 0  9998
2 65768  51.8651 190.0796 0005745 279.9400  78.2031 15.34555845  4600
KUIPER-00148            
1 65769U 25217H   25320.79177851  .00045128  00000+0  12835-2 0  9997
2 65769  51.8599 190.5243 0008395 297.1551  62.8578 15.35665683  8047
KUIPER-00150            
1 65770U 25217J   25320.83335647 -.00661262  00000+0 -40081-1 0  9991
2 65770  51.8730 192.2814 0006906 287.3689  34.7783 15.12436193  5846
KUIPER-00151            
1 65771U 25217K   25320.83335647 -.01225322  00000+0 -45750-1 0  9994
2 65771  51.8736 190.0430 0004745 248.7197 151.3556 15.29625984  5713
KUIPER-00152            
1 65772U 25217L   25320.76902073  .00046293  00000+0  12121-2 0  9992
2 65772  51.8713 189.6870 0002717 179.9012 180.1976 15.38250129  8050
KUIPER-00153            
1 65773U 25217M   25320.83335647 -.00977326  00000+0 -58352-1 0  9995
2 65773  51.8743 192.4038 0010868 287.7117  51.5788 15.13521762  3821
KUIPER-00155            
1 65774U 25217N   25320.36659058  .00052241  00000+0  14447-2 0  9995
2 65774  51.8671 192.2112 0008303 265.8456  94.1581 15.36474891  7987
KUIPER-00156            
1 65775U 25217P   25319.67208115  .00056943  00000+0  14939-2 0  9991
2 65775  51.8723 195.0867 0002843 197.1145 162.9746 15.38096330  7885
KUIPER-00158            
1 65776U 25217Q   25320.83335647 -.01353595  00000+0 -60726-1 0  9993
2 65776  51.8738 190.5630 0005066 236.4244 278.5625 15.23907420  3260
KUIPER-00163            
1 65777U 25217R   25320.83335647 -.00697101  00000+0 -36799-1 0  9990
2 65777  51.8687 191.3861 0009636 302.8769 107.7128 15.17385679  1792
